{
  "norad_id": 35752,
  "name": "NAVSTAR 64 (USA 206)",
  "history": [
    {
      "epoch": "2026-03-28T14:03:42.477120Z",
      "apogee_km": 20321.452080296152,
      "perigee_km": 20043.817644174578,
      "latitude_deg": 7.053945420807809,
      "longitude_deg": 168.9219027427088,
      "height_km": 20183.16060815904,
      "semi_major_axis_km": 26560.771862235364,
      "eccentricity": 0.0052264,
      "inclination_deg": 56.1631,
      "raan_deg": 30.6179,
      "arg_perigee_deg": 80.8092,
      "mean_anomaly_deg": 90.0384,
      "mean_motion_rev_day": 2.00558801
    }
  ]
}